[{"OBJECT_NAME":"STARLINK-35739","OBJECT_ID":"2025-294Z","EPOCH":"2026-03-09T22:12:36.454752","MEAN_MOTION":15.27596095,"ECCENTRICITY":3.199e-5,"INCLINATION":42.9976,"RA_OF_ASC_NODE":36.8746,"ARG_OF_PERICENTER":229.3795,"MEAN_ANOMALY":130.7029,"EPHEMERIS_TYPE":0,"CLASSIFICATION_TYPE":"U","NORAD_CAT_ID":67053,"ELEMENT_SET_NO":999,"REV_AT_EPOCH":1483,"BSTAR":0.0012524078,"MEAN_MOTION_DOT":0.00034379,"MEAN_MOTION_DDOT":0},{"OBJECT_NAME":"CZ-6A DEB","OBJECT_ID":"2022-151DE","EPOCH":"2026-03-09T09:45:43.657920","MEAN_MOTION":15.34292219,"ECCENTRICITY":0.00393756,"INCLINATION":99.0022,"RA_OF_ASC_NODE":218.5596,"ARG_OF_PERICENTER":192.6197,"MEAN_ANOMALY":167.4059,"EPHEMERIS_TYPE":0,"CLASSIFICATION_TYPE":"U","NORAD_CAT_ID":54359,"ELEMENT_SET_NO":999,"REV_AT_EPOCH":10560,"BSTAR":0.0065240017,"MEAN_MOTION_DOT":0.00228186,"MEAN_MOTION_DDOT":0}]
